     2.11           N: GPS NAV DATA                         RINEX VERSION / TYPE
teqc  2016Apr1      BKG Frankfurt       20170315 09:21:28UTCPGM / RUN BY / DATE
Linux 2.4.21-27.ELsmp|Opteron|gcc -static|Linux x86_64|=+   COMMENT
     2.10           N: GPS NAV DATA                         COMMENT
teqc  2011Oct11                         20170315 01:30:08UTCCOMMENT
teqc  2011Oct11     IGN-E               20170315 01:30:07UTCCOMMENT
Concatenated RINEX files (58)                               COMMENT
                                                            END OF HEADER
 7 17  3 14  8  0  0.0 3.733783960342D-04-3.979039320257D-12 0.000000000000D+00
    9.000000000000D+00-2.371875000000D+01 4.756626648117D-09-2.906124996365D+00
   -1.274049282074D-06 1.021686347667D-02 3.168359398842D-06 5.153594726562D+03
    2.016000000000D+05-3.539025783539D-08 2.019850052851D+00-1.303851604462D-07
    9.627692943370D-01 3.209062500000D+02-2.614054105503D+00-8.245343074975D-09
   -9.678974288718D-11 1.000000000000D+00 1.940000000000D+03 0.000000000000D+00
    2.000000000000D+00 0.000000000000D+00-1.117587089539D-08 9.000000000000D+00
    1.944300000000D+05
 9 17  3 14  8  0  0.0 3.217970952392D-04 7.730704965070D-12 0.000000000000D+00
    4.600000000000D+01 8.246875000000D+01 4.609834736158D-09-2.570699774821D-02
    4.187226295471D-06 8.963159052655D-04 8.845701813698D-06 5.153676372528D+03
    2.016000000000D+05-7.636845111847D-08 9.407762842513D-01-5.587935447693D-09
    9.538365687903D-01 2.049062500000D+02 1.797581682252D+00-8.119267036477D-09
    3.289422623176D-10 1.000000000000D+00 1.940000000000D+03 0.000000000000D+00
    2.000000000000D+00 0.000000000000D+00 1.396983861923D-09 4.600000000000D+01
    1.944300000000D+05
17 17  3 14  8  0  0.0-1.879758201540D-04 1.477928890381D-12 0.000000000000D+00
    5.700000000000D+01 7.403125000000D+01 4.279463894363D-09-2.283644716569D-01
    3.799796104431D-06 1.166662527248D-02 9.121373295784D-06 5.153594671249D+03
    2.016000000000D+05-1.210719347000D-07-2.144330132574D+00 1.713633537292D-07
    9.791742894423D-01 2.190000000000D+02-1.855325872033D+00-8.124266592802D-09
    5.743096553879D-10 1.000000000000D+00 1.940000000000D+03 0.000000000000D+00
    2.000000000000D+00 0.000000000000D+00-1.071020960808D-08 5.700000000000D+01
    1.944300000000D+05
19 17  3 14  7 59 44.0-5.105049349368D-04 1.136868377216D-12 0.000000000000D+00
    1.000000000000D+01 8.300000000000D+01 4.225890304355D-09 2.921176274374D+00
    4.131346940994D-06 1.017399097327D-02 8.588656783104D-06 5.153657289505D+03
    2.015840000000D+05 1.303851604462D-08-2.096303346877D+00-1.043081283569D-07
    9.763663103530D-01 2.219687500000D+02 9.283569918979D-01-7.789252798318D-09
    5.635948929772D-10 1.000000000000D+00 1.940000000000D+03 0.000000000000D+00
    2.000000000000D+00 0.000000000000D+00-1.536682248116D-08 1.000000000000D+01
    1.944300000000D+05
22 17  3 14  8  0  0.0 7.364433258772D-05-1.170974428533D-11 0.000000000000D+00
    1.060000000000D+02-5.300000000000D+01 5.296649341346D-09-6.959868193989D-01
   -2.779066562653D-06 7.493124343455D-03 1.026690006256D-05 5.153571981430D+03
    2.016000000000D+05-1.490116119385D-07-1.388694897059D-01 5.960464477539D-08
    9.239473369495D-01 1.608750000000D+02-1.787528447769D+00-8.552142105600D-09
   -3.850160468222D-10 1.000000000000D+00 1.940000000000D+03 0.000000000000D+00
    2.000000000000D+00 0.000000000000D+00-1.769512891769D-08 1.060000000000D+02
    1.944300000000D+05
23 17  3 14  7 59 44.0-2.075298689306D-04-9.094947017729D-13 0.000000000000D+00
    2.000000000000D+01 7.987500000000D+01 4.757341187656D-09-1.445957330361D+00
    4.019588232040D-06 1.134838757571D-02 8.549541234970D-06 5.153784925461D+03
    2.015840000000D+05 2.123415470123D-07 9.432845114262D-01-1.415610313416D-07
    9.447179400028D-01 2.042500000000D+02-2.492808894605D+00-8.121409322825D-09
    3.585863550537D-10 1.000000000000D+00 1.940000000000D+03 0.000000000000D+00
    2.000000000000D+00 0.000000000000D+00-2.002343535423D-08 2.000000000000D+01
    1.944300000000D+05
 5 17  3 14  8  0  0.0-5.587982013822D-05 1.932676241267D-12 0.000000000000D+00
    3.900000000000D+01-5.762500000000D+01 4.758769822644D-09 6.411286729427D-01
   -2.773478627205D-06 4.914991557598D-03 1.118518412113D-05 5.153709552765D+03
    2.016000000000D+05 3.725290298462D-08-1.115188201093D-01 4.470348358154D-08
    9.471906650817D-01 1.537500000000D+02 5.478674493584D-01-8.204627199859D-09
   -5.050210249991D-10 1.000000000000D+00 1.940000000000D+03 0.000000000000D+00
    2.000000000000D+00 0.000000000000D+00-1.071020960808D-08 3.900000000000D+01
    1.962600000000D+05
30 17  3 14  8  0  0.0 1.602340489626D-04-3.410605131648D-13 0.000000000000D+00
    7.200000000000D+01-3.025000000000D+01 5.175929906898D-09-2.904072105368D+00
   -1.525506377220D-06 2.516917767935D-03 3.140419721603D-06 5.153697463989D+03
    2.016000000000D+05-1.862645149231D-08 2.059866071770D+00-3.166496753693D-08
    9.485351745716D-01 3.128125000000D+02 3.052754834921D+00-8.564999376404D-09
   -1.582208808415D-10 1.000000000000D+00 1.940000000000D+03 0.000000000000D+00
    2.000000000000D+00 0.000000000000D+00 3.725290298462D-09 7.200000000000D+01
    1.973700000000D+05
29 17  3 14  7 59 44.0 6.204564124346D-04-2.842170943040D-12 0.000000000000D+00
    0.000000000000D+00 7.237500000000D+01 4.124814712014D-09 1.961500964000D+00
    3.602355718613D-06 6.891144439578D-04 9.216368198395D-06 5.153662534714D+03
    2.015840000000D+05 6.519258022308D-08-2.134283478297D+00 5.960464477539D-08
    9.802510980900D-01 2.094687500000D+02-6.614134833264D-02-7.922830391749D-09
    5.850243622874D-10 1.000000000000D+00 1.940000000000D+03 0.000000000000D+00
    2.000000000000D+00 0.000000000000D+00-1.024454832077D-08 0.000000000000D+00
    2.001000000000D+05
13 17  3 14  8  0  0.0-7.375748828053D-05-1.591615728103D-12 0.000000000000D+00
    4.000000000000D+01 8.812500000000D+01 4.335537706623D-09-1.882646102693D+00
    4.490837454796D-06 4.008893505670D-03 8.335337042809D-06 5.153689413071D+03
    2.016000000000D+05 3.352761268616D-08 1.065909008303D+00 1.192092895508D-07
    9.698465394412D-01 2.231562500000D+02 1.840005131828D+00-8.061050493779D-09
    3.800158243639D-10 1.000000000000D+00 1.940000000000D+03 0.000000000000D+00
    2.000000000000D+00 0.000000000000D+00-1.117587089539D-08 4.000000000000D+01
    2.013300000000D+05
13 17  3 14 10  0  0.0-7.376912981272D-05-1.591615728103D-12 0.000000000000D+00
    4.200000000000D+01 8.462500000000D+01 4.427327393586D-09-8.324760389856D-01
    4.466623067856D-06 4.008528660052D-03 8.039176464081D-06 5.153689268112D+03
    2.088000000000D+05-3.166496753693D-08 1.065850422823D+00 4.284083843231D-08
    9.698490293278D-01 2.271562500000D+02 1.840005093792D+00-8.140696117209D-09
    4.000166586859D-10 1.000000000000D+00 1.940000000000D+03 0.000000000000D+00
    2.000000000000D+00 0.000000000000D+00-1.117587089539D-08 4.200000000000D+01
    2.016300000000D+05
 2 17  3 14 10  0  0.0 4.591620527208D-04-7.162270776462D-12 0.000000000000D+00
    2.500000000000D+01-1.134375000000D+01 5.576660910833D-09-8.827245335000D-01
   -1.788139343262D-07 1.672867045272D-02 3.226101398468D-06 5.153740953445D+03
    2.088000000000D+05-4.284083843231D-08-1.189754523903D+00 3.278255462646D-07
    9.453657625529D-01 3.111250000000D+02-2.005171207452D+00-8.891441360959D-09
   -1.357199422292D-11 1.000000000000D+00 1.940000000000D+03 0.000000000000D+00
    2.000000000000D+00 0.000000000000D+00-2.048909664154D-08 2.500000000000D+01
    2.016300000000D+05
 5 17  3 14 10  0  0.0-5.586538463831D-05 1.932676241267D-12 0.000000000000D+00
    4.000000000000D+01-5.415625000000D+01 4.845559065103D-09 1.691527455114D+00
   -2.682209014893D-06 4.914560704492D-03 1.104921102524D-05 5.153707210541D+03
    2.088000000000D+05-8.568167686462D-08-1.115783784302D-01 1.303851604462D-07
    9.471874042373D-01 1.620000000000D+02 5.476307097143D-01-8.163911324743D-09
   -3.978737062038D-10 1.000000000000D+00 1.940000000000D+03 0.000000000000D+00
    2.000000000000D+00 0.000000000000D+00-1.071020960808D-08 4.000000000000D+01
    2.016300000000D+05
 6 17  3 14 10  0  0.0 3.244117833674D-04 5.002220859751D-12 0.000000000000D+00
    7.600000000000D+01-1.871875000000D+01 4.971635547690D-09-1.020455774925D+00
   -1.018866896629D-06 7.475904421881D-04 3.393739461899D-06 5.153628229141D+03
    2.088000000000D+05-2.048909664154D-08-1.146340260393D+00-4.656612873077D-08
    9.662716811398D-01 3.195625000000D+02-1.270829963192D+00-8.433922893403D-09
   -7.536028051591D-11 1.000000000000D+00 1.940000000000D+03 0.000000000000D+00
    2.000000000000D+00 0.000000000000D+00 4.190951585770D-09 7.600000000000D+01
    2.016300000000D+05
 7 17  3 14 10  0  0.0 3.733499906957D-04-3.979039320257D-12 0.000000000000D+00
    1.000000000000D+01-2.056250000000D+01 4.732697345133D-09-1.855872510391D+00
   -1.175329089165D-06 1.021646475419D-02 3.164634108543D-06 5.153595554352D+03
    2.088000000000D+05 4.470348358154D-08 2.019790335072D+00-1.396983861923D-07
    9.627687340394D-01 3.191250000000D+02-2.614076034645D+00-8.274987806089D-09
   -6.178828976244D-11 1.000000000000D+00 1.940000000000D+03 0.000000000000D+00
    2.000000000000D+00 0.000000000000D+00-1.117587089539D-08 1.000000000000D+01
    2.016300000000D+05
 9 17  3 14 10  0  0.0 3.218525089324D-04 7.730704965070D-12 0.000000000000D+00
    5.900000000000D+01 7.431250000000D+01 4.589476798600D-09 1.023934493176D+00
    3.732740879059D-06 8.973808726296D-04 8.936971426010D-06 5.153678569794D+03
    2.088000000000D+05-3.725290298462D-08 9.407178670065D-01-2.235174179077D-08
    9.538387953516D-01 2.026250000000D+02 1.798119193465D+00-8.128552941855D-09
    3.075128207630D-10 1.000000000000D+00 1.940000000000D+03 0.000000000000D+00
    2.000000000000D+00 0.000000000000D+00 1.396983861923D-09 5.900000000000D+01
    2.016300000000D+05
